NORAD_CAT_ID,OBJECT_NAME,OBJECT_TYPE,EPOCH,MEAN_MOTION,ECCENTRICITY,INCLINATION,RA_OF_ASC_NODE,ARG_OF_PERICENTER,MEAN_ANOMALY,BSTAR,MEAN_MOTION_DOT,MEAN_MOTION_DDOT,TLE_LINE0,TLE_LINE1,TLE_LINE2,SEMIMAJOR_AXIS,PERIOD,APOGEE,PERIGEE,DECAYED
56799.0,STARLINK-5953,PAYLOAD,2023-09-22 22:00:00,15.39169576,0.0003485,70.0,92.1775,270.7496,51.1131,-0.024756,-0.00887881,0.0,0 STARLINK-5953,1 56799U 23078AJ  23265.91667824 -.00887881  00000-0 -24756-1 0  9994,2 56799  70.0000  92.1775 0003485 270.7496  51.1131 15.39169576  6012,6826.701,93.557,450.945,446.187,0.0
56799.0,STARLINK-5953,PAYLOAD,2023-09-23 14:00:01,15.37898978,0.0003399,70.0,90.3894,266.7655,146.4577,-0.027226,-0.00932672,0.0,0 STARLINK-5953,1 56799U 23078AJ  23266.58334491 -.00932672  00000-0 -27226-1 0  9993,2 56799  70.0000  90.3894 0003399 266.7655 146.4577 15.37898978 18377,6830.46,93.634,454.647,450.004,0.0
56799.0,STARLINK-5953,PAYLOAD,2023-09-24 14:00:01,15.35946129,0.0003242,69.9999,87.7136,265.2611,279.1606,-0.029248,-0.00939789,0.0,0 STARLINK-5953,1 56799U 23078AJ  23267.58334491 -.00939789  00000-0 -29248-1 0  9996,2 56799  69.9999  87.7136 0003242 265.2611 279.1606 15.35946129  6018,6836.249,93.753,460.33,455.897,0.0
56799.0,STARLINK-5953,PAYLOAD,2023-09-24 22:00:00,15.35251067,0.0003233,69.9996,86.8234,271.2276,315.3823,-0.02777,-0.00877763,0.0,0 STARLINK-5953,1 56799U 23078AJ  23267.91667824 -.00877763  00000-0 -27770-1 0  9993,2 56799  69.9996  86.8234 0003233 271.2276 315.3823 15.35251067 18587,6838.312,93.796,462.388,457.966,0.0
56799.0,STARLINK-5953,PAYLOAD,2023-09-25 14:00:01,15.33993644,0.0003425,69.9995,85.046,265.6478,42.9961,-0.031432,-0.00948062,0.0,0 STARLINK-5953,1 56799U 23078AJ  23268.58335648 -.00948062  00000-0 -31432-1 0  9994,2 56799  69.9995  85.0460 0003425 265.6478  42.9961 15.33993644 18681,6842.048,93.873,466.257,461.57,0.0
56799.0,STARLINK-5953,PAYLOAD,2023-09-25 22:00:00,15.33296875,0.0003391,69.9991,84.1585,273.3615,75.0589,-0.02966,-0.00880709,0.0,0 STARLINK-5953,1 56799U 23078AJ  23268.91667824 -.00880709  00000-0 -29660-1 0  9998,2 56799  69.9991  84.1585 0003391 273.3615  75.0589 15.33296875  5968,6844.121,93.915,468.307,463.665,0.0
56799.0,STARLINK-5953,PAYLOAD,2023-09-26 14:00:01,15.32037767,0.0003441,69.9992,82.3862,269.7255,156.0375,-0.033602,-0.00952342,0.0,0 STARLINK-5953,1 56799U 23078AJ  23269.58335648 -.00952342  00000-0 -33602-1 0  9992,2 56799  69.9992  82.3862 0003441 269.7255 156.0375 15.32037767 18837,6847.87,93.992,472.092,467.379,0.0
56799.0,STARLINK-5953,PAYLOAD,2023-09-26 22:00:00,15.31337701,0.0003373,69.9989,81.5012,276.0273,187.1653,-0.031413,-0.00877283,0.0,0 STARLINK-5953,1 56799U 23078AJ  23269.91667824 -.00877283  00000-0 -31413-1 0  9991,2 56799  69.9989  81.5012 0003373 276.0273 187.1653 15.31337701  5814,6849.957,94.035,474.133,469.512,0.0
56799.0,STARLINK-5953,PAYLOAD,2023-09-27 06:00:02,15.30678966,0.0003319,69.9989,80.6171,271.0176,228.935,-0.032217,-0.00881094,0.0,0 STARLINK-5953,1 56799U 23078AJ  23270.25002315 -.00881094  00000-0 -32217-1 0  9996,2 56799  69.9989  80.6171 0003319 271.0176 228.9350 15.30678966 18932,6851.922,94.076,476.061,471.513,0.0
56799.0,STARLINK-5953,PAYLOAD,2023-09-27 14:00:01,15.30078235,0.0003339,69.9992,79.734,269.0227,266.7554,-0.03555,-0.00960245,0.0,0 STARLINK-5953,1 56799U 23078AJ  23270.58334491 -.00960245  00000-0 -35550-1 0  9994,2 56799  69.9992  79.7340 0003339 269.0227 266.7554 15.30078235  5923,6853.716,94.113,477.869,473.292,0.0
56799.0,STARLINK-5953,PAYLOAD,2023-09-27 22:00:00,15.29380365,0.0003326,69.999,78.8516,274.1536,296.77,-0.033382,-0.0087724,0.0,0 STARLINK-5953,1 56799U 23078AJ  23270.91667824 -.00877240  00000-0 -33382-1 0  9993,2 56799  69.9990  78.8516 0003326 274.1536 296.7700 15.29380365 19044,6855.8,94.156,479.946,475.385,0.0
56799.0,STARLINK-5953,PAYLOAD,2023-09-28 14:00:01,15.28120574,0.0003454,69.9994,77.0895,267.7351,11.1442,-0.037674,-0.0095821,0.0,0 STARLINK-5953,1 56799U 23078AJ  23271.58335648 -.00958210  00000-0 -37674-1 0  9998,2 56799  69.9994  77.0895 0003454 267.7351  11.1442 15.28120574 19140,6859.568,94.233,483.802,479.064,0.0
56799.0,STARLINK-5953,PAYLOAD,2023-09-28 16:00:30,15.27947163,0.00035,69.9993,76.8686,271.3856,107.616,-0.037679,-0.00953631,0.0,0 STARLINK-5953,1 56799U 23078AJ  23271.66702546 -.00953631  00000-0 -37679-1 0  9999,2 56799  69.9993  76.8686 0003500 271.3856 107.6160 15.27947163  5870,6860.087,94.244,484.353,479.551,0.0
56799.0,STARLINK-5953,PAYLOAD,2023-09-28 22:00:01,15.27427123,0.000347,69.9992,76.2097,273.4799,38.1964,-0.03571,-0.00883296,0.0,0 STARLINK-5953,1 56799U 23078AJ  23271.91668981 -.00883296  00000-0 -35710-1 0  9994,2 56799  69.9992  76.2097 0003470 273.4799  38.1964 15.27427123  5907,6861.644,94.276,485.89,481.128,0.0
56799.0,STARLINK-5953,PAYLOAD,2023-09-29 14:00:01,15.26165155,0.0003505,69.9997,74.4531,269.7776,105.0351,-0.040174,-0.00962392,0.0,0 STARLINK-5953,1 56799U 23078AJ  23272.58334491 -.00962392  00000-0 -40174-1 0  9999,2 56799  69.9997  74.4531 0003505 269.7776 105.0351 15.26165155 19291,6865.426,94.354,489.697,484.885,0.0
56799.0,STARLINK-5953,PAYLOAD,2023-09-30 06:00:00,15.24799828,0.0003373,69.9996,72.7,270.2759,164.6452,-0.037731,-0.00863539,0.0,0 STARLINK-5953,1 56799U 23078AJ  23273.25001157 -.00863539  00000-0 -37731-1 0  9992,2 56799  69.9996  72.7000 0003373 270.2759 164.6452 15.24799828 19395,6869.524,94.439,493.706,489.071,0.0
56799.0,STARLINK-5953,PAYLOAD,2023-09-30 22:00:00,15.23516063,0.0003321,69.9998,70.9503,275.8551,216.0157,-0.04034,-0.00897227,0.0,0 STARLINK-5953,1 56799U 23078AJ  23273.91667824 -.00897227  00000-0 -40340-1 0  9995,2 56799  69.9998  70.9503 0003321 275.8551 216.0157 15.23516063 19491,6873.382,94.518,497.53,492.964,0.0
56799.0,STARLINK-5953,PAYLOAD,2023-10-01 14:00:01,15.2224628,0.0003276,70.0004,69.2044,270.117,275.5704,-0.04496,-0.00958121,0.0,0 STARLINK-5953,1 56799U 23078AJ  23274.58334491 -.00958121  00000-0 -44960-1 0  9993,2 56799  70.0004  69.2044 0003276 270.1170 275.5704 15.22246280 19608,6877.204,94.597,501.322,496.816,0.0
56799.0,STARLINK-5953,PAYLOAD,2023-10-01 22:00:00,15.21564366,0.0003285,70.0002,68.3328,274.0381,297.3992,-0.043165,-0.00905491,0.0,0 STARLINK-5953,1 56799U 23078AJ  23274.91667824 -.00905491  00000-0 -43165-1 0  9997,2 56799  70.0002  68.3328 0003285 274.0381 297.3992 15.21564366  6039,6879.258,94.639,503.383,498.864,0.0
56799.0,STARLINK-5953,PAYLOAD,2023-10-02 06:00:00,15.20886191,0.0003237,70.0003,67.462,268.0373,328.367,-0.042216,-0.00860387,0.0,0 STARLINK-5953,1 56799U 23078AJ  23275.25001157 -.00860387  00000-0 -42216-1 0  9996,2 56799  70.0003  67.4620 0003237 268.0373 328.3670 15.20886191 19704,6881.303,94.682,505.396,500.941,0.0
56799.0,STARLINK-5953,PAYLOAD,2023-10-02 22:00:00,15.19613735,0.0003357,70.0004,65.7232,274.0021,9.9621,-0.046238,-0.00915342,0.0,0 STARLINK-5953,1 56799U 23078AJ  23275.91667824 -.00915342  00000-0 -46238-1 0  9998,2 56799  70.0004  65.7232 0003357 274.0021   9.9621 15.19613735 19804,6885.144,94.761,509.32,504.698,0.0
56799.0,STARLINK-5953,PAYLOAD,2023-10-03 14:00:01,15.18328931,0.0003413,70.0008,63.9879,271.089,57.3096,-0.050115,-0.00952788,0.0,0 STARLINK-5953,1 56799U 23078AJ  23276.58334491 -.00952788  00000-0 -50115-1 0  9997,2 56799  70.0008  63.9879 0003413 271.0890  57.3096 15.18328931  6022,6889.028,94.841,513.244,508.541,0.0
56799.0,STARLINK-5953,PAYLOAD,2023-10-03 22:00:00,15.17661418,0.0003428,70.0005,63.1214,276.0579,73.3921,-0.049335,-0.00922408,0.0,0 STARLINK-5953,1 56799U 23078AJ  23276.91667824 -.00922408  00000-0 -49335-1 0  9991,2 56799  70.0005  63.1214 0003428 276.0579  73.3921 15.17661418 19959,6891.048,94.883,515.275,510.55,0.0
56799.0,STARLINK-5953,PAYLOAD,2023-10-04 14:00:01,15.1637093,0.0003392,70.0008,61.3914,273.397,115.7967,-0.052983,-0.00952182,0.0,0 STARLINK-5953,1 56799U 23078AJ  23277.58334491 -.00952182  00000-0 -52983-1 0  9991,2 56799  70.0008  61.3914 0003392 273.3970 115.7967 15.16370930  6024,6894.957,94.964,519.16,514.483,0.0
56799.0,STARLINK-5953,PAYLOAD,2023-10-04 22:00:01,15.15706865,0.0003421,70.0004,60.5275,278.4242,129.5342,-0.052416,-0.00926321,0.0,0 STARLINK-5953,1 56799U 23078AJ  23277.91668981 -.00926321  00000-0 -52416-1 0  9999,2 56799  70.0004  60.5275 0003421 278.4242 129.5342 15.15706865 20106,6896.97,95.005,521.195,516.476,0.0
56799.0,STARLINK-5953,PAYLOAD,2023-10-05 14:00:01,15.14411402,0.0003282,70.0007,58.8026,275.3065,167.6412,-0.055837,-0.00949259,0.0,0 STARLINK-5953,1 56799U 23078AJ  23278.58334491 -.00949259  00000-0 -55837-1 0  9994,2 56799  70.0007  58.8026 0003282 275.3065 167.6412 15.14411402  5942,6900.903,95.086,525.033,520.503,0.0
56799.0,STARLINK-5953,PAYLOAD,2023-10-05 22:00:00,15.13752487,0.0003306,70.0003,57.9413,279.9855,179.316,-0.055724,-0.00931288,0.0,0 STARLINK-5953,1 56799U 23078AJ  23278.91667824 -.00931288  00000-0 -55724-1 0  9998,2 56799  70.0003  57.9413 0003306 279.9855 179.3160 15.13752487 20253,6902.906,95.128,527.053,522.488,0.0
56799.0,STARLINK-5953,PAYLOAD,2023-10-06 14:00:01,15.12451434,0.0003207,70.0005,56.2215,276.1917,213.5335,-0.058727,-0.00945112,0.0,0 STARLINK-5953,1 56799U 23078AJ  23279.58335648 -.00945112  00000-0 -58727-1 0  9995,2 56799  70.0005  56.2215 0003207 276.1917 213.5335 15.12451434  6105,6906.864,95.21,530.944,526.514,0.0
56799.0,STARLINK-5953,PAYLOAD,2023-10-06 22:00:01,15.11797742,0.0003189,70.0002,55.3631,280.1821,223.5478,-0.059218,-0.00936445,0.0,0 STARLINK-5953,1 56799U 23078AJ  23279.91668981 -.00936445  00000-0 -59218-1 0  9996,2 56799  70.0002  55.3631 0003189 280.1821 223.5478 15.11797742 20404,6908.854,95.251,532.923,528.516,0.0
56799.0,STARLINK-5953,PAYLOAD,2023-10-07 14:00:01,15.10492165,0.0003215,70.0004,53.648,276.2088,253.1274,-0.061747,-0.00941247,0.0,0 STARLINK-5953,1 56799U 23078AJ  23280.58334491 -.00941247  00000-0 -61747-1 0  9993,2 56799  70.0004  53.6480 0003215 276.2088 253.1274 15.10492165  5990,6912.835,95.333,536.922,532.478,0.0
